{
  "type": "FeatureCollection",
  "name": "Home visits service areas",
  "properties": {
    "description": "Operational home-visit service coverage",
    "initialBounds": [[45.197, 19.744], [45.331, 19.934]]
  },
  "features": [
    {
      "type": "Feature",
      "properties": {
        "zone": "extended"
      },
      "geometry": {
        "type": "Polygon",
        "coordinates": [
          [
            [19.765, 45.226],
            [19.744, 45.246],
            [19.750, 45.276],
            [19.774, 45.300],
            [19.793, 45.325],
            [19.831, 45.331],
            [19.858, 45.315],
            [19.873, 45.293],
            [19.920, 45.291],
            [19.934, 45.258],
            [19.919, 45.226],
            [19.888, 45.202],
            [19.844, 45.197],
            [19.811, 45.208],
            [19.785, 45.217],
            [19.765, 45.226]
          ],
          [
            [19.793, 45.248],
            [19.812, 45.2375],
            [19.839, 45.237],
            [19.850, 45.224],
            [19.873, 45.218],
            [19.895, 45.229],
            [19.910, 45.249],
            [19.9055, 45.271],
            [19.869, 45.2735],
            [19.8485, 45.2855],
            [19.817, 45.2845],
            [19.799, 45.2715],
            [19.793, 45.248]
          ]
        ]
      }
    },
    {
      "type": "Feature",
      "properties": {
        "zone": "base"
      },
      "geometry": {
        "type": "Polygon",
        "coordinates": [
          [
            [19.793, 45.248],
            [19.799, 45.2715],
            [19.817, 45.2845],
            [19.8485, 45.2855],
            [19.869, 45.2735],
            [19.9055, 45.271],
            [19.910, 45.249],
            [19.895, 45.229],
            [19.873, 45.218],
            [19.850, 45.224],
            [19.839, 45.237],
            [19.812, 45.2375],
            [19.793, 45.248]
          ]
        ]
      }
    }
  ]
}
